#cP2022  4  9 12  0  0.00000000     576 d+D   IGb14 EXT AIUB
## 2204 561600.00000000   300.00000000 59678 0.5000000000000
+   76   G01G02G03G04G05G06G07G08G09G10G11G12G13G14G15G16G17
+        G18G19G20G22G23G24G25G26G27G28G29G30G31G32R01R02R03
+        R04R05R07R08R09R12R13R14R15R17R18R19R20R21R22R24E01
+        E02E03E04E05E07E08E09E10E11E12E13E14E15E18E19E21E24
+        E25E26E27E30E31E33E34E36  0  0  0  0  0  0  0  0  0
++         6  7  6  7  7  6  7  6  6  5  8  7  7  7  7  7  7
++         8  7  7  7  7  7  6  6  6  7  7  7  7  5  7  7  7
++         6  7  6  7  7  8  9  7  8  8  7  8  9  7  8  8  6
++         6  6  6  6  6  6  7  6  7  7  7  6  6  6  7  6  6
++         6  7  6  6  6  7  7  6  0  0  0  0  0  0  0  0  0
%c M  cc GPS ccc cccc cccc cccc cccc ccccc ccccc ccccc ccccc
%c cc cc ccc ccc cccc cccc cccc cccc ccccc ccccc ccccc ccccc
%f  1.2500000  1.025000000  0.00000000000  0.000000000000000
%f  0.0000000  0.000000000  0.00000000000  0.000000000000000
%i    0    0    0    0      0      0      0      0         0
%i    0    0    0    0      0      0      0      0         0
/* Center for Orbit Determination in Europe (CODE)          
/* Ultra-rapid GRE orbits starting year-day 22099 12 hour   
/* Observed/predicted: 24/24 hours (data used up to 100L)   
/* PCV:IGS14      OL/AL:FES2014b NONE     YN ORB:CoN CLK:BRD
*  2022  4 10  1 45  0.00000000
PG01   3519.623952  14333.830458 -22371.069163    388.631396
PG02  17922.689461 -15362.076949  12970.212932   -653.017347
PG03  10828.463351  21855.608125 -10755.613137   -200.247942
PG04    861.619704  23755.330831  11768.965053   -177.170835
PG05   3295.472006 -16548.094512  20313.165712    -77.745624
PG06  26011.459066  -5436.312633  -1239.716112    261.181049
PG07  19606.839480   7665.098958  16876.491597    319.675505
PG08  -5290.749333  25737.581178  -2228.496156    -63.289886
PG09   9507.682376  16033.257376  18842.036499   -344.712613
PG10 -21096.016874  -8053.148802 -14067.989694   -374.127268
PG11  19262.156568 -12839.625908  13008.159157    -47.105660
PG12  -6209.782865 -22136.449820 -13673.541405   -197.983088
PG13  13223.973249 -22485.511654   4341.445795    291.464482
PG14  20997.573601   9263.249503 -13444.126838   -101.316000
PG15   1663.897745 -26182.624256  -3246.152925    -70.148152
PG16  -8845.018250  12451.519585  21404.700066   -490.042984
PG17  15518.925827  -1291.626782 -21097.426987    598.352932
PG18 -19033.225184  -7584.992815  16952.496810    199.345348
PG19  17058.969816  -8238.805325 -18794.852681    142.336672
PG20  11903.981045 -10415.810377  21317.197072    515.898655
PG22 -16756.678704  11768.810293 -16406.149057    240.915231
PG23 -20725.367540 -16085.479418  -4480.617206    -13.750508
PG24    309.063279 -16482.680146 -21060.128911    258.584442
PG25 -17291.415352 -20246.680917  -2429.863480    309.899298
PG26 -17593.829770   3269.221886  19631.204956    197.445719
PG27 -12442.545345  21417.219289   8812.272693    179.137447
PG28  17974.739903   1752.741658 -18881.461424    372.712255
PG29  -6778.025782 -17547.449083  18675.739294   -501.306004
PG30  24834.072461   1669.031674   9696.871337   -523.033836
PG31 -25980.374738   6534.682536   1088.635252   -172.740813
PG32 -16156.971981   4365.961958 -20437.585503   -102.168725
PR01   6467.567973 -15350.052446  19320.294427      7.677813
PR02  -2863.879502 -25243.853229   2670.674142    515.048669
PR03 -10000.178685 -18758.975486 -14089.653313     54.645736
PR04 -11155.961310  -1964.784933 -22822.107811    135.963013
PR05  -6352.764951  15873.417117 -18904.293919     90.870638
PR07  10211.089936  18089.641691  14816.905156     33.684040
PR08  11294.117570   1714.307403  22867.121143    -64.508435
PR09   5838.481061  13076.027136  21141.095397     48.966738
PR12  12825.069624  -6112.355266 -21159.163103     17.845072
PR13  -4515.461495 -12611.243340 -21727.052949    -20.652238
PR14 -20645.686504 -12002.442700  -8937.064050     76.348525
PR15 -23676.284649  -4306.732576   8473.420556     96.945092
PR17  -8880.643509  -6256.810350  23086.871886    516.271827
PR18 -19230.952354   6751.459632  15310.892223    113.050754
PR19 -20371.365413  15339.153311    535.115415   -184.775786
PR20  -8124.308229  16204.849364 -17916.628475    -68.329061
PR21   9962.053333   5166.237306 -22907.135229   -292.097827
PR22  19638.376668  -7380.665813 -14601.579171   -175.934194
PR24   6920.151019 -16483.735325  18206.378100     88.357151
PE01 -22626.495126  -1842.094962  18995.045324   -613.380432
PE02  22539.281044   1667.971026 -19111.646030    291.824386
PE03  17336.708008  -8904.704336  22278.037827   -546.377222
PE04 -10799.056990  25924.789198  -9342.756546  -1003.179765
PE05  13798.070514  13666.628269  22346.574071   -192.305200
PE07  -2274.701369 -27965.869075  -9404.287858   -657.039324
PE08  10484.064532 -26136.135924   9105.969729   -509.693790
PE09   2453.031771  27894.289041   9625.256234   -478.906178
PE10  -9289.857515  18404.042293 -21245.570486   -505.736067
PE11   2313.417110  16268.936570 -24626.422671   4001.517405
PE12 -18820.010460  17526.897620 -14634.244319   4670.644406
PE13  -1511.557453 -16439.575167  24573.296824    427.917046
PE14 -16771.257705  17472.708843  11977.115292  -1808.573660
PE15  18944.954629 -17508.315875  14533.519018    752.617084
PE18  20653.540543  -5828.631841 -20841.337105  -1582.945019
PE19 -17351.212608   6158.828684 -23165.800982  -2754.340129
PE21 -24270.482968 -16550.898414   3650.544987   -727.546229
PE24  10849.406468  22682.062137  15582.694314   -552.460501
PE25  24193.227742  16704.848078  -3403.138432   -569.845368
PE26 -21698.124804  -5231.578344  19442.215001  -1012.225681
PE27 -12070.740550 -22699.813693 -14682.126281   -272.702609
PE30   8196.039518 -14771.656100 -24321.144102   -418.167538
PE31  -7141.042993  15435.701597  24227.530172   -494.829590
PE33 -28133.991348   8239.373879   4038.767601   -457.760589
PE34  28116.993874  -8423.707476  -3840.498468   -511.250778
PE36  20961.674687   5713.560699 -20107.978947   -357.467068
EOF
